{"type": "FeatureCollection", "features": [ {"type": "Feature", "properties": {"norad_id": 34610, "name": "COSMOS 2251 DEB", "group": "cosmos-2251-debris", "lat": -51.50581423478539, "lon": -124.94479518297858, "alt_km": 851.9476528477389, "timestamp": "2025-12-16T05:49:09.608018+00:00", "meta": {"OBJECT_NAME": "COSMOS 2251 DEB", "OBJECT_ID": "1993-036WF", "EPOCH": "2025-12-14T04:35:22.335072", "MEAN_MOTION": 14.07070245, "ECCENTRICITY": 0.01802619, "INCLINATION": 74.0181, "RA_OF_ASC_NODE": 259.7735, "ARG_OF_PERICENTER": 30.0652, "MEAN_ANOMALY": 331.0686, "EPHEMERIS_TYPE": 0, "CLASSIFICATION_TYPE": "U", "NORAD_CAT_ID": 34610, "ELEMENT_SET_NO": 999, "REV_AT_EPOCH": 85580, "BSTAR": 0.0020281044, "MEAN_MOTION_DOT": 3.908e-05, "MEAN_MOTION_DDOT": 0}, "tle": {"line1": "1 34610U 93036WF  25348.19123073  .00003908  00000+0  20281-2 0  9997", "line2": "2 34610  74.0181 259.7735 0180261  30.0652 331.0686 14.07070245855802"}}, "geometry": {"type": "Point", "coordinates": [-124.94479518297858, -51.50581423478539]}}, {"type": "Feature", "properties": {"norad_id": 34611, "name": "COSMOS 2251 DEB", "group": "cosmos-2251-debris", "lat": 63.96179441106169, "lon": 130.00909382598178, "alt_km": 649.2615231045302, "timestamp": "2025-12-16T05:49:09.608028+00:00", "meta": {"OBJECT_NAME": "COSMOS 2251 DEB", "OBJECT_ID": "1993-036WG", "EPOCH": "2025-12-15T08:31:21.923040", "MEAN_MOTION": 14.69563088, "ECCENTRICITY": 0.00223868, "INCLINATION": 74.0528, "RA_OF_ASC_NODE": 95.9037, "ARG_OF_PERICENTER": 136.5852, "MEAN_ANOMALY": 280.2676, "EPHEMERIS_TYPE": 0, "CLASSIFICATION_TYPE": "U", "NORAD_CAT_ID": 34611, "ELEMENT_SET_NO": 999, "REV_AT_EPOCH": 88429, "BSTAR": 0.0010001756, "MEAN_MOTION_DOT": 5.935e-05, "MEAN_MOTION_DDOT": 0}, "tle": {"line1": "1 34611U 93036WG  25349.35511485  .00005935  00000+0  10002-2 0  9997", "line2": "2 34611  74.0528  95.9037 0022386 136.5852 280.2676 14.69563088884299"}}, "geometry": {"type": "Point", "coordinates": [130.00909382598178, 63.96179441106169]}}, {"type": "Feature", "properties": {"norad_id": 34613, "name": "COSMOS 2251 DEB", "group": "cosmos-2251-debris", "lat": -26.519716034211942, "lon": -96.0592633471313, "alt_km": 860.0521052060512, "timestamp": "2025-12-16T05:49:09.608038+00:00", "meta": {"OBJECT_NAME": "COSMOS 2251 DEB", "OBJECT_ID": "1993-036WJ", "EPOCH": "2025-12-15T20:07:11.185824", "MEAN_MOTION": 14.26453491, "ECCENTRICITY": 0.01102472, "INCLINATION": 73.9637, "RA_OF_ASC_NODE": 272.9261, "ARG_OF_PERICENTER": 103.933, "MEAN_ANOMALY": 314.8768, "EPHEMERIS_TYPE": 0, "CLASSIFICATION_TYPE": "U", "NORAD_CAT_ID": 34613, "ELEMENT_SET_NO": 999, "REV_AT_EPOCH": 86507, "BSTAR": 0.00094566669, "MEAN_MOTION_DOT": 2.403e-05, "MEAN_MOTION_DDOT": 0}, "tle": {"line1": "1 34613U 93036WJ  25349.83832391  .00002403  00000+0  94567-3 0  9990", "line2": "2 34613  73.9637 272.9261 0110247 103.9330 314.8768 14.26453491865079"}}, "geometry": {"type": "Point", "coordinates": [-96.0592633471313, -26.519716034211942]}}, {"type": "Feature", "properties": {"norad_id": 34614, "name": "COSMOS 2251 DEB", "group": "cosmos-2251-debris", "lat": 41.36932749474885, "lon": 142.82499094199102, "alt_km": 967.4775761898027, "timestamp": "2025-12-16T05:49:09.608048+00:00", "meta": {"OBJECT_NAME": "COSMOS 2251 DEB", "OBJECT_ID": "1993-036WK", "EPOCH": "2025-12-15T00:38:49.464960", "MEAN_MOTION": 14.17577452, "ECCENTRICITY": 0.01974385, "INCLINATION": 73.8793, "RA_OF_ASC_NODE": 339.7675, "ARG_OF_PERICENTER": 333.3229, "MEAN_ANOMALY": 81.8372, "EPHEMERIS_TYPE": 0, "CLASSIFICATION_TYPE": "U", "NORAD_CAT_ID": 34614, "ELEMENT_SET_NO": 999, "REV_AT_EPOCH": 84799, "BSTAR": 0.0040647842, "MEAN_MOTION_DOT": 9.992e-05, "MEAN_MOTION_DDOT": 0}, "tle": {"line1": "1 34614U 93036WK  25349.02696140  .00009992  00000+0  40648-2 0  9992", "line2": "2 34614  73.8793 339.7675 0197438 333.3229  81.8372 14.17577452847993"}}, "geometry": {"type": "Point", "coordinates": [142.82499094199102, 41.36932749474885]}}, {"type": "Feature", "properties": {"norad_id": 34615, "name": "COSMOS 2251 DEB", "group": "cosmos-2251-debris", "lat": -64.41724532847044, "lon": -108.28313069162532, "alt_km": 1086.4066508080186, "timestamp": "2025-12-16T05:49:09.608058+00:00", "meta": {"OBJECT_NAME": "COSMOS 2251 DEB", "OBJECT_ID": "1993-036WL", "EPOCH": "2025-12-15T19:40:39.231264", "MEAN_MOTION": 13.5220348, "ECCENTRICITY": 0.04009521, "INCLINATION": 74.0048, "RA_OF_ASC_NODE": 289.2009, "ARG_OF_PERICENTER": 195.784, "MEAN_ANOMALY": 193.6017, "EPHEMERIS_TYPE": 0, "CLASSIFICATION_TYPE": "U", "NORAD_CAT_ID": 34615, "ELEMENT_SET_NO": 999, "REV_AT_EPOCH": 82857, "BSTAR": 7.6517013e-05, "MEAN_MOTION_DOT": 6.2e-07, "MEAN_MOTION_DDOT": 0}, "tle": {"line1": "1 34615U 93036WL  25349.81989851  .00000062  00000+0  76517-4 0  9999", "line2": "2 34615  74.0048 289.2009 0400952 195.7840 193.6017 13.52203480828573"}}, "geometry": {"type": "Point", "coordinates": [-108.28313069162532, -64.41724532847044]}}, {"type": "Feature", "properties": {"norad_id": 34619, "name": "COSMOS 2251 DEB", "group": "cosmos-2251-debris", "lat": 9.954080573616292, "lon": 10.330793163577287, "alt_km": 710.024937108079, "timestamp": "2025-12-16T05:49:09.608068+00:00", "meta": {"OBJECT_NAME": "COSMOS 2251 DEB", "OBJECT_ID": "1993-036WQ", "EPOCH": "2025-12-14T23:31:53.827104", "MEAN_MOTION": 14.64650501, "ECCENTRICITY": 0.00947397, "INCLINATION": 74.0432, "RA_OF_ASC_NODE": 195.6334, "ARG_OF_PERICENTER": 289.9742, "MEAN_ANOMALY": 69.1242, "EPHEMERIS_TYPE": 0, "CLASSIFICATION_TYPE": "U", "NORAD_CAT_ID": 34619, "ELEMENT_SET_NO": 999, "REV_AT_EPOCH": 89331, "BSTAR": 0.00021494476, "MEAN_MOTION_DOT": 1.186e-05, "MEAN_MOTION_DDOT": 0}, "tle": {"line1": "1 34619U 93036WQ  25348.98048411  .00001186  00000+0  21494-3 0  9999", "line2": "2 34619  74.0432 195.6334 0094739 289.9742  69.1242 14.64650501893319"}}, "geometry": {"type": "Point", "coordinates": [10.330793163577287, 9.954080573616292]}}, {"type": "Feature", "properties": {"norad_id": 34620, "name": "COSMOS 2251 DEB", "group": "cosmos-2251-debris", "lat": -31.097324852669196, "lon": 42.901485796224925, "alt_km": 687.821744765647, "timestamp": "2025-12-16T05:49:09.608078+00:00", "meta": {"OBJECT_NAME": "COSMOS 2251 DEB", "OBJECT_ID": "1993-036WR", "EPOCH": "2025-12-15T17:14:17.657088", "MEAN_MOTION": 14.4915244, "ECCENTRICITY": 0.0080351, "INCLINATION": 74.0516, "RA_OF_ASC_NODE": 213.9511, "ARG_OF_PERICENTER": 249.6973, "MEAN_ANOMALY": 109.5539, "EPHEMERIS_TYPE": 0, "CLASSIFICATION_TYPE": "U", "NORAD_CAT_ID": 34620, "ELEMENT_SET_NO": 999, "REV_AT_EPOCH": 86870, "BSTAR": 0.0012466857, "MEAN_MOTION_DOT": 4.916e-05, "MEAN_MOTION_DDOT": 0}, "tle": {"line1": "1 34620U 93036WR  25349.71825992  .00004916  00000+0  12467-2 0  9993", "line2": "2 34620  74.0516 213.9511 0080351 249.6973 109.5539 14.49152440868704"}}, "geometry": {"type": "Point", "coordinates": [42.901485796224925, -31.097324852669196]}}, {"type": "Feature", "properties": {"norad_id": 34622, "name": "COSMOS 2251 DEB", "group": "cosmos-2251-debris", "lat": -46.19940534559199, "lon": 138.0863769840573, "alt_km": 892.1533535986282, "timestamp": "2025-12-16T05:49:09.608089+00:00", "meta": {"OBJECT_NAME": "COSMOS 2251 DEB", "OBJECT_ID": "1993-036WT", "EPOCH": "2025-12-15T22:15:38.737152", "MEAN_MOTION": 14.22059882, "ECCENTRICITY": 0.01045518, "INCLINATION": 74.0423, "RA_OF_ASC_NODE": 301.2917, "ARG_OF_PERICENTER": 22.9986, "MEAN_ANOMALY": 34.4335, "EPHEMERIS_TYPE": 0, "CLASSIFICATION_TYPE": "U", "NORAD_CAT_ID": 34622, "ELEMENT_SET_NO": 999, "REV_AT_EPOCH": 86505, "BSTAR": 0.00087090113, "MEAN_MOTION_DOT": 2.012e-05, "MEAN_MOTION_DDOT": 0}, "tle": {"line1": "1 34622U 93036WT  25349.92753168  .00002012  00000+0  87090-3 0  9993", "line2": "2 34622  74.0423 301.2917 0104551  22.9986  34.4335 14.22059882865051"}}, "geometry": {"type": "Point", "coordinates": [138.0863769840573, -46.19940534559199]}}, {"type": "Feature", "properties": {"norad_id": 34626, "name": "COSMOS 2251 DEB", "group": "cosmos-2251-debris", "lat": -33.09394916795992, "lon": -53.66017602160118, "alt_km": 656.0265247315037, "timestamp": "2025-12-16T05:49:09.608099+00:00", "meta": {"OBJECT_NAME": "COSMOS 2251 DEB", "OBJECT_ID": "1993-036WX", "EPOCH": "2025-12-15T16:05:51.709632", "MEAN_MOTION": 14.72234946, "ECCENTRICITY": 0.00267305, "INCLINATION": 74.0478, "RA_OF_ASC_NODE": 318.1949, "ARG_OF_PERICENTER": 45.5284, "MEAN_ANOMALY": 131.3038, "EPHEMERIS_TYPE": 0, "CLASSIFICATION_TYPE": "U", "NORAD_CAT_ID": 34626, "ELEMENT_SET_NO": 999, "REV_AT_EPOCH": 89187, "BSTAR": 0.00068364462, "MEAN_MOTION_DOT": 4.309e-05, "MEAN_MOTION_DDOT": 0}, "tle": {"line1": "1 34626U 93036WX  25349.67073738  .00004309  00000+0  68364-3 0  9991", "line2": "2 34626  74.0478 318.1949 0026730  45.5284 131.3038 14.72234946891878"}}, "geometry": {"type": "Point", "coordinates": [-53.66017602160118, -33.09394916795992]}}, {"type": "Feature", "properties": {"norad_id": 34634, "name": "COSMOS 2251 DEB", "group": "cosmos-2251-debris", "lat": -69.04803864416479, "lon": -19.967331649191316, "alt_km": 740.812913893772, "timestamp": "2025-12-16T05:49:09.608109+00:00", "meta": {"OBJECT_NAME": "COSMOS 2251 DEB", "OBJECT_ID": "1993-036XF", "EPOCH": "2025-12-15T08:48:16.328160", "MEAN_MOTION": 14.55666927, "ECCENTRICITY": 0.00440003, "INCLINATION": 74.053, "RA_OF_ASC_NODE": 29.9993, "ARG_OF_PERICENTER": 136.6323, "MEAN_ANOMALY": 240.1925, "EPHEMERIS_TYPE": 0, "CLASSIFICATION_TYPE": "U", "NORAD_CAT_ID": 34634, "ELEMENT_SET_NO": 999, "REV_AT_EPOCH": 88820, "BSTAR": 0.00025855618, "MEAN_MOTION_DOT": 1.115e-05, "MEAN_MOTION_DDOT": 0}, "tle": {"line1": "1 34634U 93036XF  25349.36685565  .00001115  00000+0  25856-3 0  9994", "line2": "2 34634  74.0530  29.9993 0044000 136.6323 240.1925 14.55666927888204"}}, "geometry": {"type": "Point", "coordinates": [-19.967331649191316, -69.04803864416479]}}]}